TDRS 3                  
1 19548U 88091B   22354.38174390 -.00000283  00000+0  00000+0 0  9996
2 19548  13.5798 349.8812 0039016 331.1475 216.3904  1.00278979112585
HST                     
1 20580U 90037B   22353.78631414  .00003803  00000+0  20861-3 0  9996
2 20580  28.4715  20.0539 0002325 231.4505 291.6570 15.11441182594540
TDRS 5                  
1 21639U 91054B   22354.13991924  .00000099  00000+0  00000+0 0  9990
2 21639  14.2231   3.2010 0025616 349.4771 338.9578  1.00264956114920
TDRS 6                  
1 22314U 93003B   22354.45345975 -.00000280  00000+0  00000+0 0  9994
2 22314  14.1421   6.4629 0007357 143.9983  55.9570  1.00272890109597
TDRS 7                  
1 23613U 95035B   22353.78226838 -.00000186  00000+0  00000+0 0  9990
2 23613  13.9063 357.1734 0024066  51.1017  46.5591  1.00272240100461
ISS (ZARYA)             
1 25544U 98067A   22354.64418368  .00012110  00000+0  21916-3 0  9992
2 25544  51.6432 132.9045 0003415 177.7367 187.8174 15.50086952374100
LANDSAT 7               
1 25682U 99020A   22354.59399486  .00000411  00000+0  95060-4 0  9991
2 25682  97.9556  35.4099 0001071  90.2978 269.8355 14.59861950259721
TERRA                   
1 25994U 99068A   22354.49849501  .00000511  00000+0  11857-3 0  9998
2 25994  98.1184  62.1369 0000319 250.1653 239.5841 14.58945786223729
TDRS 8                  
1 26388U 00034A   22353.78105213 -.00000216  00000+0  00000+0 0  9994
2 26388  10.6597  41.2695 0018512 330.5627  87.0873  1.00269338 82394
TIMED                   
1 26998U 01055B   22354.03856693  .00001382  00000+0  15070-3 0  9990
2 26998  74.0724 269.8302 0000723 236.5152 123.5961 14.89020829140764
TDRS 9                  
1 27389U 02011A   22354.21628703 -.00000269  00000+0  00000+0 0  9994
2 27389   9.4150  59.1240 0026453 294.1033 111.1761  1.00268754 77659
AQUA                    
1 27424U 02022A   22354.54940064  .00000931  00000+0  21494-3 0  9998
2 27424  98.2685 294.8652 0001599  54.9617   0.1476 14.57525057 97332
TDRS 10                 
1 27566U 02055A   22354.40622126  .00000108  00000+0  00000+0 0  9994
2 27566   8.5433  48.9088 0005876 311.4999  63.7409  1.00277127 73444
SORCE                   
1 27651U 03004A   22353.77222863  .00002669  00000+0  28113-3 0  9990
2 27651  39.9950 262.3273 0022915 332.9115  27.0478 14.90532119 80726
AURA                    
1 28376U 04026A   22354.52246246  .00000931  00000+0  21672-3 0  9998
2 28376  98.2306 295.3498 0001432  87.4725 272.6638 14.57117715980368
SWIFT                   
1 28485U 04047A   22353.59658420  .00006239  00000+0  36649-3 0  9996
2 28485  20.5568  89.4819 0010582 126.5212 233.6197 15.07799845991510
THEMIS A                
1 30580U 07004A   22354.41008067 -.00000015  00000+0 -62934-1 0  9991
2 30580  12.5796 325.3026 8356328 204.6091 106.0882  0.87833272 54763
THEMIS D                
1 30797U 07004D   22354.34339947  .00000053  00000+0  00000+0 0  9991
2 30797   8.5032 313.3128 8308030 219.9646  97.3418  0.87835671 54282
THEMIS E                
1 30798U 07004E   22354.41112667  .00000044  00000+0  00000+0 0  9998
2 30798   9.5831 328.9323 8302702 206.2722 109.8762  0.87839085 54705
AIM                     
1 31304U 07015A   22353.80806145  .00015388  00000+0  68983-3 0  9992
2 31304  97.8608 280.3548 0006152  90.5962 269.5977 15.21311054859332
FGRST (GLAST)           
1 33053U 08029A   22354.09384250  .00002656  00000+0  13040-3 0  9999
2 33053  25.5843 340.7933 0011921 170.3588 189.7177 15.12809745802055
WISE                    
1 36119U 09071A   22354.07921424  .00010030  00000+0  28588-3 0  9999
2 36119  97.2203  24.8861 0002874  38.6623 321.4827 15.36262534723997
TDRS 11                 
1 39070U 13004A   22354.49968626  .00000106  00000+0  00000+0 0  9998
2 39070   2.7899 351.8247 0003662  50.0743  52.7451  1.00276655 36209
TDRS 12                 
1 39504U 14004A   22353.80891949 -.00000245  00000+0  00000+0 0  9993
2 39504   3.7199 350.8226 0002020 245.3969 102.4072  1.00266956 32657
GPM-CORE                
1 39574U 14009C   22354.51107331  .00024845  00000+0  35460-3 0  9992
2 39574  64.9998 275.0028 0009044 279.6181  80.3943 15.56195048500567
MMS 1                   
1 40482U 15011A   22352.22810934 -.00000146  00000+0  00000+0 0  9999
2 40482  29.8011  90.0094 8901285  69.5007 203.2879  0.28521590 13820
MMS 2                   
1 40483U 15011B   22353.67360722 -.00000248  00000+0  00000+0 0  9998
2 40483  29.7793  89.9025 8901599  69.6308 351.6373  0.28532540 13803
MMS 3                   
1 40484U 15011C   22353.67360726 -.00000248  00000+0  00000+0 0  9993
2 40484  29.7883  89.9039 8901923  69.6227 351.6489  0.28540383 13802
MMS 4                   
1 40485U 15011D   22352.22718315 -.00000146  00000+0  00000+0 0  9992
2 40485  29.7863  89.9721 8902304  69.5319 203.1963  0.28523493 13771
TDRS 13                 
1 42915U 17047A   22354.31698847 -.00000074  00000+0  00000+0 0  9992
2 42915   4.2260 335.4453 0013201 115.5225 100.5290  1.00270437 19597
JPSS-1                  
1 43013U 17073A   22354.51374483  .00000087  00000+0  62118-4 0  9996
2 43013  98.7359 290.2915 0000690 111.5229 248.6021 14.19537320263625
